GLOBALSTAR M057         
1 25943U 99058A   24337.84940227 -.00000042  00000+0  46098-3 0  9995
2 25943  51.9957 185.4016 0002428   4.5916 355.4955 12.24804078142871
GLOBALSTAR M059         
1 25944U 99058B   24337.86832407 -.00000002  00000+0  10416-2 0  9998
2 25944  52.0045  18.2751 0000245 178.6533 352.1570 11.99972008550470
GLOBALSTAR M056         
1 25945U 99058C   24337.90441130 -.00000110  00000+0 -25754-3 0  9996
2 25945  51.9990  25.1736 0001268 151.2504  19.9137 12.04776756138961
GLOBALSTAR M031         
1 25946U 99058D   24338.11437657 -.00000045  00000+0  46218-3 0  9994
2 25946  51.9971 288.6720 0001441 115.3882 257.3642 12.16023142140939
GLOBALSTAR M039         
1 25961U 99062A   24337.79698490 -.00000042  00000+0  34287-3 0  9993
2 25961  51.9817 146.8757 0001509 270.4481  89.6213 12.62312947155417
GLOBALSTAR M034         
1 25962U 99062B   24337.83063559 -.00000067  00000+0  21697-3 0  9999
2 25962  51.9836 161.7990 0014732  34.9938 338.4714 11.79436800115224
GLOBALSTAR M029         
1 25963U 99062C   24337.53117340 -.00000039  00000+0  58202-3 0  9996
2 25963  51.9809 267.3935 0003188  81.2055  90.4325 11.99888150145514
GLOBALSTAR M061         
1 25964U 99062D   24338.15892550 -.00000066  00000+0  23807-3 0  9992
2 25964  51.9818 342.3799 0006009 317.9065  78.0246 11.76768460 98395
